[{"OBJECT_NAME":"STARLINK-34712","OBJECT_ID":"2025-157D","EPOCH":"2025-09-28T12:55:02.214048","MEAN_MOTION":15.39583225,"ECCENTRICITY":0.00017018,"INCLINATION":53.1608,"RA_OF_ASC_NODE":27.6597,"ARG_OF_PERICENTER":67.0324,"MEAN_ANOMALY":293.086,"EPHEMERIS_TYPE":0,"CLASSIFICATION_TYPE":"U","NORAD_CAT_ID":64907,"ELEMENT_SET_NO":999,"REV_AT_EPOCH":1117,"BSTAR":0.00098851106,"MEAN_MOTION_DOT":0.00039296,"MEAN_MOTION_DDOT":0},{"OBJECT_NAME":"STARLINK-34702","OBJECT_ID":"2025-157E","EPOCH":"2025-09-28T17:02:02.260032","MEAN_MOTION":15.39640442,"ECCENTRICITY":0.00014962,"INCLINATION":53.1606,"RA_OF_ASC_NODE":26.5941,"ARG_OF_PERICENTER":74.8081,"MEAN_ANOMALY":285.3089,"EPHEMERIS_TYPE":0,"CLASSIFICATION_TYPE":"U","NORAD_CAT_ID":64908,"ELEMENT_SET_NO":999,"REV_AT_EPOCH":1120,"BSTAR":0.0027779959,"MEAN_MOTION_DOT":0.00112446,"MEAN_MOTION_DDOT":0},{"OBJECT_NAME":"STARLINK-34687","OBJECT_ID":"2025-157F","EPOCH":"2025-09-29T06:49:57.266112","MEAN_MOTION":15.39648489,"ECCENTRICITY":0.00012632,"INCLINATION":53.1587,"RA_OF_ASC_NODE":23.7855,"ARG_OF_PERICENTER":63.0676,"MEAN_ANOMALY":297.0458,"EPHEMERIS_TYPE":0,"CLASSIFICATION_TYPE":"U","NORAD_CAT_ID":64909,"ELEMENT_SET_NO":999,"REV_AT_EPOCH":1124,"BSTAR":0.0025055211,"MEAN_MOTION_DOT":0.00101255,"MEAN_MOTION_DDOT":0},{"OBJECT_NAME":"STARLINK-34642","OBJECT_ID":"2025-157G","EPOCH":"2025-09-28T13:35:10.601088","MEAN_MOTION":15.39646996,"ECCENTRICITY":0.00014639,"INCLINATION":53.159,"RA_OF_ASC_NODE":27.8356,"ARG_OF_PERICENTER":70.099,"MEAN_ANOMALY":290.0173,"EPHEMERIS_TYPE":0,"CLASSIFICATION_TYPE":"U","NORAD_CAT_ID":64910,"ELEMENT_SET_NO":999,"REV_AT_EPOCH":1117,"BSTAR":0.0022511632,"MEAN_MOTION_DOT":0.00090805,"MEAN_MOTION_DDOT":0},{"OBJECT_NAME":"STARLINK-34718","OBJECT_ID":"2025-157H","EPOCH":"2025-09-28T18:02:12.952320","MEAN_MOTION":15.39622435,"ECCENTRICITY":0.00013562,"INCLINATION":53.1592,"RA_OF_ASC_NODE":26.8611,"ARG_OF_PERICENTER":72.5826,"MEAN_ANOMALY":287.5327,"EPHEMERIS_TYPE":0,"CLASSIFICATION_TYPE":"U","NORAD_CAT_ID":64911,"ELEMENT_SET_NO":999,"REV_AT_EPOCH":1120,"BSTAR":0.0020322316,"MEAN_MOTION_DOT":0.00081771,"MEAN_MOTION_DDOT":0},{"OBJECT_NAME":"STARLINK-34711","OBJECT_ID":"2025-157J","EPOCH":"2025-09-28T13:15:05.894784","MEAN_MOTION":15.39594085,"ECCENTRICITY":0.00012882,"INCLINATION":53.1595,"RA_OF_ASC_NODE":27.7477,"ARG_OF_PERICENTER":88.6506,"MEAN_ANOMALY":271.4647,"EPHEMERIS_TYPE":0,"CLASSIFICATION_TYPE":"U","NORAD_CAT_ID":64912,"ELEMENT_SET_NO":999,"REV_AT_EPOCH":1117,"BSTAR":0.0023042262,"MEAN_MOTION_DOT":0.00092817,"MEAN_MOTION_DDOT":0},{"OBJECT_NAME":"STARLINK-34659","OBJECT_ID":"2025-157K","EPOCH":"2025-09-28T11:28:14.995776","MEAN_MOTION":15.39602385,"ECCENTRICITY":0.00015888,"INCLINATION":53.16,"RA_OF_ASC_NODE":27.9946,"ARG_OF_PERICENTER":63.0663,"MEAN_ANOMALY":297.0504,"EPHEMERIS_TYPE":0,"CLASSIFICATION_TYPE":"U","NORAD_CAT_ID":64913,"ELEMENT_SET_NO":999,"REV_AT_EPOCH":1111,"BSTAR":0.0018049016,"MEAN_MOTION_DOT":0.00072442,"MEAN_MOTION_DDOT":0},{"OBJECT_NAME":"STARLINK-34571","OBJECT_ID":"2025-157L","EPOCH":"2025-09-28T12:48:20.890368","MEAN_MOTION":15.39606566,"ECCENTRICITY":0.00020091,"INCLINATION":53.1606,"RA_OF_ASC_NODE":27.6289,"ARG_OF_PERICENTER":133.1297,"MEAN_ANOMALY":226.9877,"EPHEMERIS_TYPE":0,"CLASSIFICATION_TYPE":"U","NORAD_CAT_ID":64914,"ELEMENT_SET_NO":999,"REV_AT_EPOCH":1112,"BSTAR":0.0016650479,"MEAN_MOTION_DOT":0.00066758,"MEAN_MOTION_DDOT":0},{"OBJECT_NAME":"STARLINK-34636","OBJECT_ID":"2025-157M","EPOCH":"2025-09-28T21:55:50.190240","MEAN_MOTION":15.3964224,"ECCENTRICITY":9.777e-5,"INCLINATION":53.1618,"RA_OF_ASC_NODE":25.7344,"ARG_OF_PERICENTER":112.0973,"MEAN_ANOMALY":248.0136,"EPHEMERIS_TYPE":0,"CLASSIFICATION_TYPE":"U","NORAD_CAT_ID":64915,"ELEMENT_SET_NO":999,"REV_AT_EPOCH":1123,"BSTAR":0.0020658919,"MEAN_MOTION_DOT":0.00083202,"MEAN_MOTION_DDOT":0},{"OBJECT_NAME":"STARLINK-34695","OBJECT_ID":"2025-157N","EPOCH":"2025-09-28T17:08:43.576800","MEAN_MOTION":15.39637066,"ECCENTRICITY":0.00014632,"INCLINATION":53.1614,"RA_OF_ASC_NODE":26.6217,"ARG_OF_PERICENTER":58.6178,"MEAN_ANOMALY":301.497,"EPHEMERIS_TYPE":0,"CLASSIFICATION_TYPE":"U","NORAD_CAT_ID":64916,"ELEMENT_SET_NO":999,"REV_AT_EPOCH":1120,"BSTAR":0.0010935945,"MEAN_MOTION_DOT":0.00043618,"MEAN_MOTION_DDOT":0},{"OBJECT_NAME":"STARLINK-34653","OBJECT_ID":"2025-157P","EPOCH":"2025-09-29T06:56:38.705568","MEAN_MOTION":15.39636123,"ECCENTRICITY":0.00013651,"INCLINATION":53.1591,"RA_OF_ASC_NODE":23.8127,"ARG_OF_PERICENTER":92.4703,"MEAN_ANOMALY":267.6458,"EPHEMERIS_TYPE":0,"CLASSIFICATION_TYPE":"U","NORAD_CAT_ID":64917,"ELEMENT_SET_NO":999,"REV_AT_EPOCH":1124,"BSTAR":0.0026479547,"MEAN_MOTION_DOT":0.00107072,"MEAN_MOTION_DDOT":0},{"OBJECT_NAME":"STARLINK-34611","OBJECT_ID":"2025-157Q","EPOCH":"2025-09-28T13:28:57.500832","MEAN_MOTION":15.39604879,"ECCENTRICITY":0.00015013,"INCLINATION":53.1592,"RA_OF_ASC_NODE":27.8056,"ARG_OF_PERICENTER":63.3966,"MEAN_ANOMALY":296.7192,"EPHEMERIS_TYPE":0,"CLASSIFICATION_TYPE":"U","NORAD_CAT_ID":64918,"ELEMENT_SET_NO":999,"REV_AT_EPOCH":1117,"BSTAR":0.001549937,"MEAN_MOTION_DOT":0.00062072,"MEAN_MOTION_DDOT":0},{"OBJECT_NAME":"STARLINK-34599","OBJECT_ID":"2025-157R","EPOCH":"2025-09-28T17:02:31.040736","MEAN_MOTION":15.39630178,"ECCENTRICITY":0.0001286,"INCLINATION":53.1614,"RA_OF_ASC_NODE":26.5853,"ARG_OF_PERICENTER":96.1345,"MEAN_ANOMALY":263.9807,"EPHEMERIS_TYPE":0,"CLASSIFICATION_TYPE":"U","NORAD_CAT_ID":64919,"ELEMENT_SET_NO":999,"REV_AT_EPOCH":1120,"BSTAR":0.0016899128,"MEAN_MOTION_DOT":0.00067822,"MEAN_MOTION_DDOT":0},{"OBJECT_NAME":"STARLINK-34069","OBJECT_ID":"2025-157S","EPOCH":"2025-09-28T18:02:42.019008","MEAN_MOTION":15.39640076,"ECCENTRICITY":0.00012602,"INCLINATION":53.1591,"RA_OF_ASC_NODE":26.8599,"ARG_OF_PERICENTER":101.2057,"MEAN_ANOMALY":258.909,"EPHEMERIS_TYPE":0,"CLASSIFICATION_TYPE":"U","NORAD_CAT_ID":64920,"ELEMENT_SET_NO":999,"REV_AT_EPOCH":1120,"BSTAR":0.0028126142,"MEAN_MOTION_DOT":0.00113872,"MEAN_MOTION_DDOT":0},{"OBJECT_NAME":"STARLINK-34699","OBJECT_ID":"2025-157T","EPOCH":"2025-09-28T13:15:35.173152","MEAN_MOTION":15.39598548,"ECCENTRICITY":0.00014663,"INCLINATION":53.1575,"RA_OF_ASC_NODE":27.7481,"ARG_OF_PERICENTER":45.2475,"MEAN_ANOMALY":314.8649,"EPHEMERIS_TYPE":0,"CLASSIFICATION_TYPE":"U","NORAD_CAT_ID":64921,"ELEMENT_SET_NO":999,"REV_AT_EPOCH":1117,"BSTAR":0.0016859063,"MEAN_MOTION_DOT":0.00067588,"MEAN_MOTION_DDOT":0},{"OBJECT_NAME":"STARLINK-34700","OBJECT_ID":"2025-157U","EPOCH":"2025-09-28T17:42:38.105856","MEAN_MOTION":15.39632012,"ECCENTRICITY":0.00011243,"INCLINATION":53.1594,"RA_OF_ASC_NODE":26.7724,"ARG_OF_PERICENTER":97.0138,"MEAN_ANOMALY":263.0995,"EPHEMERIS_TYPE":0,"CLASSIFICATION_TYPE":"U","NORAD_CAT_ID":64922,"ELEMENT_SET_NO":999,"REV_AT_EPOCH":1115,"BSTAR":0.0010573853,"MEAN_MOTION_DOT":0.00042146,"MEAN_MOTION_DDOT":0}]
