STARLINK-34712          
1 64907U 25157D   25271.53822007  .00039296  00000+0  98851-3 0  9992
2 64907  53.1608  27.6597 0001701  67.0324 293.0860 15.39583225 11179
STARLINK-34702          
1 64908U 25157E   25271.70974838  .00112446  00000+0  27780-2 0  9993
2 64908  53.1606  26.5941 0001496  74.8081 285.3089 15.39640442 11202
STARLINK-34687          
1 64909U 25157F   25272.28469058  .00101255  00000+0  25055-2 0  9990
2 64909  53.1587  23.7855 0001263  63.0676 297.0458 15.39648489 11249
STARLINK-34642          
1 64910U 25157G   25271.56609492  .00090805  00000+0  22512-2 0  9993
2 64910  53.1590  27.8356 0001463  70.0990 290.0173 15.39646996 11175
STARLINK-34718          
1 64911U 25157H   25271.75153880  .00081771  00000+0  20322-2 0  9999
2 64911  53.1592  26.8611 0001356  72.5826 287.5327 15.39622435 11205
STARLINK-34711          
1 64912U 25157J   25271.55215156  .00092817  00000+0  23042-2 0  9998
2 64912  53.1595  27.7477 0001288  88.6506 271.4647 15.39594085 11178
STARLINK-34659          
1 64913U 25157K   25271.47795134  .00072442  00000+0  18049-2 0  9992
2 64913  53.1600  27.9946 0001588  63.0663 297.0504 15.39602385 11116
STARLINK-34571          
1 64914U 25157L   25271.53357512  .00066758  00000+0  16650-2 0  9993
2 64914  53.1606  27.6289 0002009 133.1297 226.9877 15.39606566 11121
STARLINK-34636          
1 64915U 25157M   25271.91377535  .00083202  00000+0  20659-2 0  9990
2 64915  53.1618  25.7344 0000977 112.0973 248.0136 15.39642240 11239
STARLINK-34695          
1 64916U 25157N   25271.71439325  .00043618  00000+0  10936-2 0  9999
2 64916  53.1614  26.6217 0001463  58.6178 301.4970 15.39637066 11205
STARLINK-34653          
1 64917U 25157P   25272.28933687  .00107072  00000+0  26480-2 0  9999
2 64917  53.1591  23.8127 0001365  92.4703 267.6458 15.39636123 11241
STARLINK-34611          
1 64918U 25157Q   25271.56177663  .00062072  00000+0  15499-2 0  9992
2 64918  53.1592  27.8056 0001501  63.3966 296.7192 15.39604879 11171
STARLINK-34599          
1 64919U 25157R   25271.71008149  .00067822  00000+0  16899-2 0  9995
2 64919  53.1614  26.5853 0001286  96.1345 263.9807 15.39630178 11207
STARLINK-34069          
1 64920U 25157S   25271.75187522  .00113872  00000+0  28126-2 0  9997
2 64920  53.1591  26.8599 0001260 101.2057 258.9090 15.39640076 11209
STARLINK-34699          
1 64921U 25157T   25271.55249043  .00067588  00000+0  16859-2 0  9995
2 64921  53.1575  27.7481 0001466  45.2475 314.8649 15.39598548 11175
STARLINK-34700          
1 64922U 25157U   25271.73794104  .00042146  00000+0  10574-2 0  9990
2 64922  53.1594  26.7724 0001124  97.0138 263.0995 15.39632012 11150
